STARLINK-5415           
1 54796U 22175AQ  23003.74648505 -.00011240  00000+0 -75802-4 0  9990
2 54796  53.2150 222.3151 0001274  36.2058 323.9048 15.73191746  2402
STARLINK-5435           
1 54797U 22175AR  23003.58334491 -.01200153  00000+0 -10755-1 0  9996
2 54797  53.2169 223.1343 0001351  56.2427  90.6069 15.70211008  1303
STARLINK-5420           
1 54798U 22175AS  23003.86584938 -.00099487  00000+0 -67211-3 0  9997
2 54798  53.2156 221.6374 0001285  86.5393 273.5774 15.74560722  2424
STARLINK-5421           
1 54799U 22175AT  23003.68088535  .00028933  00000+0  21020-3 0  9994
2 54799  53.2151 222.6178 0002081  35.6282 324.4877 15.73160420  2396
STARLINK-5428           
1 54800U 22175AU  23003.61901834  .00029257  00000+0  21215-3 0  9992
2 54800  53.2145 222.9415 0001200  85.3048 274.8109 15.73199945  2382
STARLINK-5429           
1 54801U 22175AV  23003.58334491 -.01201099  00000+0 -10719-1 0  9992
2 54801  53.2170 223.1265 0001363  61.0241  89.8157 15.70311325  1306
STARLINK-5426           
1 54802U 22175AW  23003.91667824  .00251015  36322-4  55167-3 0  9998
2 54802  53.2146 220.1119 0029800 101.5043  85.9485 15.96812382  2445
STARLINK-5430           
1 54803U 22175AX  23003.74617484  .00040718  00000+0  29299-3 0  9999
2 54803  53.2145 222.3133 0000884  77.6676 282.4444 15.73210936  2408
STARLINK-5422           
1 54804U 22175AY  23003.74575165  .00015976  00000+0  11796-3 0  9990
2 54804  53.2147 222.3113 0001245  55.1649 304.9488 15.73213611  2403
STARLINK-5417           
1 54805U 22175AZ  23003.80938803  .00028957  00000+0  20985-3 0  9993
2 54805  53.2148 221.9963 0001483  41.3123 318.8010 15.73219501  2411
STARLINK-5412           
1 54806U 22175BA  23003.74554934  .00019371  00000+0  14221-3 0  9992
2 54806  53.2150 222.3101 0001845  35.6919 324.4224 15.73184265  2402
STARLINK-5410           
1 54807U 22175BB  23003.74564117  .00046169  00000+0  33138-3 0  9990
2 54807  53.2145 222.3092 0001111  49.2768 310.8348 15.73213104  2406
STARLINK-5413           
1 54808U 22175BC  23003.87238863  .00059763  00000+0  42693-3 0  9991
2 54808  53.2150 221.6792 0001311  54.1490 305.9652 15.73215095  2427
STARLINK-5414           
1 54809U 22175BD  23003.87249511  .00051355  00000+0  36793-3 0  9997
2 54809  53.2147 221.6799 0001186  53.5593 306.5536 15.73210274  2420
STARLINK-5408           
1 54810U 22175BE  23003.87228796  .00050934  00000+0  36533-3 0  9995
2 54810  53.2148 221.6786 0000980  81.7417 278.3715 15.73186937  2421
STARLINK-5424           
1 54811U 22175BF  23003.61806808  .00028713  00000+0  20820-3 0  9996
2 54811  53.2146 222.9340 0001263  62.8492 297.2657 15.73210985  2389
FALCON 9 DEB            
1 54812U 22175BG  23002.67428766  .07754216  12269-4  56931-3 0  9993
2 54812  53.2087 224.7325 0014306 108.0513 252.2095 16.39517704  4433
FALCON 9 DEB            
1 54813U 22175BH  23002.73024641  .08227404  12324-4  46804-3 0  9990
2 54813  53.1922 224.3509 0014158 103.1044 257.1586 16.40936543  4449
FALCON 9 DEB            
1 54814U 22175BJ  23002.47695736  .06165182  12225-4  61348-3 0  9993
2 54814  53.2129 225.6167 0015819 102.0725 258.2096 16.36875054  4401
FALCON 9 DEB            
1 54815U 22175BK  23002.03974220  .06938231  12299-4  53876-3 0  9995
2 54815  53.2148 227.8634 0013800  97.4999 262.7618 16.39093638  4339
XW-4 (CAS-10)           
1 54816U 21035C   23003.61735193  .00176884  00000+0  18157-2 0  9995
2 54816  41.4779  78.5877 0006163 305.7460  54.2799 15.63536082  2468
2022-176A               
1 54818U 22176A   23003.83009442  .00177418  87568-5  88597-3 0  9999
2 54818  97.2724 144.8168 0319354 164.1941 354.7672 15.34506737  1154
2022-176B               
1 54819U 22176B   23003.62156685  .00268491  23732-4  79971-3 0  9999
2 54819  97.2268 144.9379 0168771 149.2967 211.8296 15.72958045  1150
SHIYAN 10-02 (SY-10 02) 
1 54878U 22178A   22363.79780338  .00010514 -29619-6  76203-3 0  9999
2 54878  50.9887 118.8514 7525127 225.2265  62.4328  2.01047938    45
CZ-3B R/B               
1 54879U 22178B   23002.78878788  .00004593  00000+0  14539-2 0  9995
2 54879  51.3993 117.6659 7521769 226.6616  39.5844  1.99161502   115
EROS C3                 
1 54880U 22179A   23003.56013378  .00000259  00000+0  00000+0 0  9991
2 54880 139.3569 245.8469 0011274 262.2361  97.7474 15.24057841   654
1998-067UQ              
1 55123U 98067UQ  23003.63333487  .00047740  00000+0  80865-3 0  9992
2 55123  51.6429  63.6040 0003157 273.6994  86.3634 15.51052568   873
1998-067UR              
1 55124U 98067UR  23003.65810831  .00060369  00000+0  10202-2 0  9997
2 55124  51.6453  63.4813 0002972 265.5963 231.8120 15.51017177   860
1998-067US              
1 55125U 98067US  23003.63357344  .00040543  00000+0  69100-3 0  9995
2 55125  51.6429  63.6053 0003896 269.3117  90.7426 15.50949302   887
1998-067UT              
1 55126U 98067UT  23003.63368923  .00035150  00000+0  60181-3 0  9999
2 55126  51.6429  63.6061 0003928 268.6498  91.4041 15.50889048   888
1998-067UU              
1 55127U 98067UU  23003.62836962  .00374260  00000+0  53691-2 0  9997
2 55127  51.6414  63.5700 0001579 282.4679  77.6134 15.54276582   849
1998-067UV              
1 55128U 98067UV  23003.65902079  .00041530  00000+0  71426-3 0  9992
2 55128  51.6445  63.4855 0004828 248.9506 248.6383 15.50679744   872
1998-067UW              
1 55129U 98067UW  23003.44145077  .00026363  00000+0  46064-3 0  9994
2 55129  51.6427  64.5728 0002775 235.2336 124.8392 15.50470921   841
1998-067UX              
1 55130U 98067UX  23003.59786241  .00023350  00000+0  40927-3 0  9991
2 55130  51.6470  63.7968 0003724 221.2797 292.1437 15.50452918   811
